{
  "type": "FeatureCollection",
  "features": [
    {
      "type": "Feature",
      "properties": {
        "norad_id": 55973,
        "name": "TIANMU-1 03",
        "group": "weather",
        "lat": -64.38457729244035,
        "lon": 165.1027215548582,
        "alt_km": 452.48366525338224,
        "timestamp": "2025-12-12T11:38:31.059444+00:00",
        "meta_object_name": "TIANMU-1 03",
        "meta_object_id": "2023-039A",
        "meta_epoch": "2025-12-12T04:07:58.402272",
        "meta_mean_motion": 15.40897103,
        "meta_eccentricity": 0.0004434,
        "meta_inclination": 97.5109,
        "meta_ra_of_asc_node": 148.8079,
        "meta_arg_of_pericenter": 62.7354,
        "meta_mean_anomaly": 297.4343,
        "meta_ephemeris_type": 0,
        "meta_classification_type": "U",
        "meta_norad_cat_id": 55973,
        "meta_element_set_no": 999,
        "meta_rev_at_epoch": 15197,
        "meta_bstar": 0.00052542,
        "meta_mean_motion_dot": 0.00021544,
        "meta_mean_motion_ddot": 0,
        "tle_line1": "1 55973U 23039A   25346.17220373  .00021544  00000+0  52542-3 0  9997",
        "tle_line2": "2 55973  97.5109 148.8079 0004434  62.7354 297.4343 15.40897103151974"
      },
      "geometry": {
        "type": "Point",
        "coordinates": [
          165.1027215548582,
          -64.38457729244035
        ]
      }
    },
    {
      "type": "Feature",
      "properties": {
        "norad_id": 55974,
        "name": "TIANMU-1 04",
        "group": "weather",
        "lat": 47.68013447439357,
        "lon": 139.9968444196946,
        "alt_km": 434.8033650865955,
        "timestamp": "2025-12-12T11:38:31.059454+00:00",
        "meta_object_name": "TIANMU-1 04",
        "meta_object_id": "2023-039B",
        "meta_epoch": "2025-12-12T03:38:33.385920",
        "meta_mean_motion": 15.41232671,
        "meta_eccentricity": 0.00051,
        "meta_inclination": 97.5041,
        "meta_ra_of_asc_node": 147.9782,
        "meta_arg_of_pericenter": 57.6013,
        "meta_mean_anomaly": 302.5726,
        "meta_ephemeris_type": 0,
        "meta_classification_type": "U",
        "meta_norad_cat_id": 55974,
        "meta_element_set_no": 999,
        "meta_rev_at_epoch": 15197,
        "meta_bstar": 0.00053965,
        "meta_mean_motion_dot": 0.00022382,
        "meta_mean_motion_ddot": 0,
        "tle_line1": "1 55974U 23039B   25346.15177530  .00022382  00000+0  53965-3 0  9993",
        "tle_line2": "2 55974  97.5041 147.9782 0005100  57.6013 302.5726 15.41232671151974"
      },
      "geometry": {
        "type": "Point",
        "coordinates": [
          139.9968444196946,
          47.68013447439357
        ]
      }
    },
    {
      "type": "Feature",
      "properties": {
        "norad_id": 55975,
        "name": "TIANMU-1 05",
        "group": "weather",
        "lat": 77.94210259841576,
        "lon": 110.68097835312196,
        "alt_km": 433.27679487943806,
        "timestamp": "2025-12-12T11:38:31.059465+00:00",
        "meta_object_name": "TIANMU-1 05",
        "meta_object_id": "2023-039C",
        "meta_epoch": "2025-12-12T05:03:34.636320",
        "meta_mean_motion": 15.40856591,
        "meta_eccentricity": 0.0004375,
        "meta_inclination": 97.5087,
        "meta_ra_of_asc_node": 148.5312,
        "meta_arg_of_pericenter": 79.5086,
        "meta_mean_anomaly": 280.6653,
        "meta_ephemeris_type": 0,
        "meta_classification_type": "U",
        "meta_norad_cat_id": 55975,
        "meta_element_set_no": 999,
        "meta_rev_at_epoch": 15196,
        "meta_bstar": 0.00054761,
        "meta_mean_motion_dot": 0.0002243,
        "meta_mean_motion_ddot": 0,
        "tle_line1": "1 55975U 23039C   25346.21081755  .00022430  00000+0  54761-3 0  9993",
        "tle_line2": "2 55975  97.5087 148.5312 0004375  79.5086 280.6653 15.40856591151963"
      },
      "geometry": {
        "type": "Point",
        "coordinates": [
          110.68097835312196,
          77.94210259841576
        ]
      }
    },
    {
      "type": "Feature",
      "properties": {
        "norad_id": 55976,
        "name": "TIANMU-1 06",
        "group": "weather",
        "lat": 35.723298894386346,
        "lon": 143.8335843670456,
        "alt_km": 437.3954591024485,
        "timestamp": "2025-12-12T11:38:31.059475+00:00",
        "meta_object_name": "TIANMU-1 06",
        "meta_object_id": "2023-039D",
        "meta_epoch": "2025-12-12T03:41:42.996768",
        "meta_mean_motion": 15.41284966,
        "meta_eccentricity": 0.0004666,
        "meta_inclination": 97.5099,
        "meta_ra_of_asc_node": 148.9374,
        "meta_arg_of_pericenter": 74.8897,
        "meta_mean_anomaly": 285.2865,
        "meta_ephemeris_type": 0,
        "meta_classification_type": "U",
        "meta_norad_cat_id": 55976,
        "meta_element_set_no": 999,
        "meta_rev_at_epoch": 15197,
        "meta_bstar": 0.00054088,
        "meta_mean_motion_dot": 0.00022471,
        "meta_mean_motion_ddot": 0,
        "tle_line1": "1 55976U 23039D   25346.15396987  .00022471  00000+0  54088-3 0  9990",
        "tle_line2": "2 55976  97.5099 148.9374 0004666  74.8897 285.2865 15.41284966151979"
      },
      "geometry": {
        "type": "Point",
        "coordinates": [
          143.8335843670456,
          35.723298894386346
        ]
      }
    },
    {
      "type": "Feature",
      "properties": {
        "norad_id": 56232,
        "name": "FENGYUN 3G",
        "group": "weather",
        "lat": 48.529678206402835,
        "lon": -23.097071634844085,
        "alt_km": 394.88727214633764,
        "timestamp": "2025-12-12T11:38:31.059487+00:00",
        "meta_object_name": "FENGYUN 3G",
        "meta_object_id": "2023-055A",
        "meta_epoch": "2025-12-12T03:29:14.661312",
        "meta_mean_motion": 15.5359009,
        "meta_eccentricity": 0.0009271,
        "meta_inclination": 49.9933,
        "meta_ra_of_asc_node": 230.5224,
        "meta_arg_of_pericenter": 145.743,
        "meta_mean_anomaly": 214.4138,
        "meta_ephemeris_type": 0,
        "meta_classification_type": "U",
        "meta_norad_cat_id": 56232,
        "meta_element_set_no": 999,
        "meta_rev_at_epoch": 15093,
        "meta_bstar": 0.00066365,
        "meta_mean_motion_dot": 0.00042972,
        "meta_mean_motion_ddot": 0,
        "tle_line1": "1 56232U 23055A   25346.14530858  .00042972  00000+0  66365-3 0  9999",
        "tle_line2": "2 56232  49.9933 230.5224 0009271 145.7430 214.4138 15.53590090150936"
      },
      "geometry": {
        "type": "Point",
        "coordinates": [
          -23.097071634844085,
          48.529678206402835
        ]
      }
    },
    {
      "type": "Feature",
      "properties": {
        "norad_id": 57166,
        "name": "METEOR-M2 3",
        "group": "weather",
        "lat": 22.139414068230245,
        "lon": 36.483001539132516,
        "alt_km": 808.6795502668338,
        "timestamp": "2025-12-12T11:38:31.059498+00:00",
        "meta_object_name": "METEOR-M2 3",
        "meta_object_id": "2023-091A",
        "meta_epoch": "2025-12-12T04:47:30.744096",
        "meta_mean_motion": 14.24025993,
        "meta_eccentricity": 0.0003936,
        "meta_inclination": 98.6379,
        "meta_ra_of_asc_node": 39.7484,
        "meta_arg_of_pericenter": 10.3709,
        "meta_mean_anomaly": 349.7551,
        "meta_ephemeris_type": 0,
        "meta_classification_type": "U",
        "meta_norad_cat_id": 57166,
        "meta_element_set_no": 999,
        "meta_rev_at_epoch": 12790,
        "meta_bstar": 2.8948e-05,
        "meta_mean_motion_dot": 2.3e-07,
        "meta_mean_motion_ddot": 0,
        "tle_line1": "1 57166U 23091A   25346.19966139  .00000023  00000+0  28948-4 0  9993",
        "tle_line2": "2 57166  98.6379  39.7484 0003936  10.3709 349.7551 14.24025993127907"
      },
      "geometry": {
        "type": "Point",
        "coordinates": [
          36.483001539132516,
          22.139414068230245
        ]
      }
    },
    {
      "type": "Feature",
      "properties": {
        "norad_id": 57399,
        "name": "TIANMU-1 07",
        "group": "weather",
        "lat": 64.60667996484473,
        "lon": -128.01920017425448,
        "alt_km": 472.06040503459826,
        "timestamp": "2025-12-12T11:38:31.059508+00:00",
        "meta_object_name": "TIANMU-1 07",
        "meta_object_id": "2023-101A",
        "meta_epoch": "2025-12-12T04:51:26.023392",
        "meta_mean_motion": 15.28060393,
        "meta_eccentricity": 0.0005623,
        "meta_inclination": 97.2879,
        "meta_ra_of_asc_node": 36.0637,
        "meta_arg_of_pericenter": 83.0609,
        "meta_mean_anomaly": 277.127,
        "meta_ephemeris_type": 0,
        "meta_classification_type": "U",
        "meta_norad_cat_id": 57399,
        "meta_element_set_no": 999,
        "meta_rev_at_epoch": 13307,
        "meta_bstar": 0.00040583,
        "meta_mean_motion_dot": 0.00011043,
        "meta_mean_motion_ddot": 0,
        "tle_line1": "1 57399U 23101A   25346.20238453  .00011043  00000+0  40583-3 0  9998",
        "tle_line2": "2 57399  97.2879  36.0637 0005623  83.0609 277.1270 15.28060393133071"
      },
      "geometry": {
        "type": "Point",
        "coordinates": [
          -128.01920017425448,
          64.60667996484473
        ]
      }
    }
  ]
}